DUPLEX                  
1 66906U 98067XS  26102.72394151  .00024739  00000+0  32308-3 0  9993
2 66906  51.6279 258.9272 0003753 281.1810  78.8760 15.58507595 20438
ISS OBJECT XT           
1 66907U 98067XT  26102.82065921  .00264374  00000+0  10606-2 0  9992
2 66907  51.6194 249.7505 0009546 300.3872  59.6188 15.85145950 20568
ISS OBJECT XU           
1 66908U 98067XU  26103.12851068  .00278404  00000+0  10823-2 0  9992
2 66908  51.6196 248.0505 0009537 300.6453  59.3610 15.85762942 20610
SILVERSAT               
1 66909U 98067XV  26101.44198092  .00588813  15493-3  14302-2 0  9997
2 66909  51.6155 254.7584 0011917 300.1845  59.7981 15.95566356 20372
ISS OBJECT XW           
1 66910U 98067XW  26103.10075062  .00202338  00000+0  93694-3 0  9996
2 66910  51.6190 248.6136 0009478 296.4458  63.5572 15.82286494 20607
ISS OBJECT XY           
1 66912U 98067XY  26103.13831698  .00086762  00000+0  66087-3 0  9993
2 66912  51.6242 251.9188 0006148 293.5031  66.5320 15.71488910 20550
KNACKSAT-2              
1 67683U 98067XZ  26102.82606475  .00027598  00000+0  41187-3 0  9993
2 67683  51.6302 261.8605 0011219 314.2598  45.7471 15.54776165 10098
CORAL                   
1 67684U 98067YA  26103.15815649  .00062567  00000+0  73710-3 0  9998
2 67684  51.6279 258.8264 0014825 307.5230  52.4415 15.60651131 10166
GXIBA-1                 
1 67685U 98067YB  26102.80995021  .00032197  00000+0  46623-3 0  9992
2 67685  51.6293 261.7532 0013149 311.1274  48.8581 15.55488952 10099
UITMSAT-2               
1 67686U 98067YC  26102.72003338  .00042359  00000+0  58189-3 0  9996
2 67686  51.6290 261.9051 0010156 288.1908  71.7978 15.56822259 10084
HMU-SAT2                
1 67687U 98067YD  26103.13885125  .00027459  00000+0  40380-3 0  9993
2 67687  51.6304 260.2029 0009718 291.9851  68.0107 15.55199861 10065
LEOPARD                 
1 67688U 98067YE  26102.73174160  .00037885  00000+0  53345-3 0  9998
2 67688  51.6291 261.9837 0009752 288.6186  71.3747 15.56211293 10004
CREW DRAGON 12          
1 67796U 26031A   26103.16688155  .00004867  00000+0  96801-4 0  9991
2 67796  51.6321 261.8843 0006462 306.5385  53.5008 15.48891757561700
PROGRESS-MS 33          
1 68319U 26058A   26103.16688155  .00004867  00000+0  96801-4 0  9992
2 68319  51.6321 261.8843 0006462 306.5385  53.5008 15.48891757  3163
CYGNUS NG-24            
1 68689U 26079A   26102.84991451  .00220277  35068-4  22099-3 0  9994
2 68689  51.6616 263.4880 0006629 293.1346  66.8970 16.10537511   226
